     2.10           NAVIGATION                              RINEX VERSION / TYPE
fic2rin                                 06/27/2008 01:14:18 PGM / RUN BY / DATE
                                                            END OF HEADER
23 08  6 26  8  0  0.0  .361310318112D-03  .193267624127D-11  .000000000000D+00
     .320000000000D+02 -.124062500000D+02  .403409660774D-08 -.128118530489D+01
    -.732019543648D-06  .567760085687D-02  .975839793682D-05  .515372540092D+04
     .374400000000D+06 -.949949026108D-07  .143321370029D+01 -.391155481339D-07
     .971174061526D+00  .197187500000D+03  .275514243524D+01 -.787854245863D-08
    -.753602819154D-10  .100000000000D+01  .148500000000D+04  .000000000000D+00
     .240000000000D+01  .000000000000D+00 -.200234353542D-07  .320000000000D+02
     .367206000000D+06  .400000000000D+01
24 08  6 26  8  0  0.0  .104805454612D-03  .295585778076D-11  .000000000000D+00
     .420000000000D+02  .628750000000D+02  .502878089748D-08  .102505051095D+01
     .326149165630D-05  .765698077157D-02  .711530447006D-05  .515366861725D+04
     .374400000000D+06  .102445483208D-06 -.613357344178D+00 -.115483999252D-06
     .952720773376D+00  .237687500000D+03 -.730983238695D+00 -.830498879326D-08
     .126433837905D-09  .100000000000D+01  .148500000000D+04  .000000000000D+00
     .240000000000D+01  .000000000000D+00 -.139698386192D-08  .420000000000D+02
     .367206000000D+06  .400000000000D+01
26 08  6 26  8  0  0.0  .281189568341D-03  .716227077646D-11  .000000000000D+00
     .140000000000D+02 -.239062500000D+02  .343692887617D-08 -.190144036194D+01
    -.118277966976D-05  .191717082635D-01  .954233109951D-05  .515361836433D+04
     .374400000000D+06  .255182385445D-06  .147595569150D+01 -.186264514923D-06
     .993245400635D+00  .210562500000D+03  .942776147394D+00 -.737387858021D-08
    -.189293599124D-10  .100000000000D+01  .148500000000D+04  .000000000000D+00
     .240000000000D+01  .000000000000D+00 -.605359673500D-08  .140000000000D+02
     .367206000000D+06  .400000000000D+01
27 08  6 26  8  0  0.0  .198352616280D-03  .272848410532D-11  .000000000000D+00
     .620000000000D+02  .108125000000D+02  .434518099423D-08  .154279902839D+01
     .156462192535D-06  .210766262608D-01  .709667801857D-05  .515375725555D+04
     .374400000000D+06 -.782310962677D-07  .241700014473D+01 -.515952706337D-06
     .969859474563D+00  .248812500000D+03 -.170265800441D+01 -.813891044686D-08
     .350014579512D-09  .100000000000D+01  .148500000000D+04  .000000000000D+00
     .240000000000D+01  .000000000000D+00 -.419095158577D-08  .620000000000D+02
     .367206000000D+06  .400000000000D+01
28 08  6 26  8  0  0.0 -.204606913030D-04 -.341060513165D-12  .000000000000D+00
     .380000000000D+02 -.505000000000D+02  .464626496416D-08  .271407237361D+00
    -.267103314400D-05  .138183553936D-01  .690668821335D-05  .515371130180D+04
     .374400000000D+06 -.217929482460D-06 -.273182502640D+01  .221654772758D-06
     .964179892614D+00  .251531250000D+03 -.209558911955D+01 -.833213278106D-08
    -.832177520677D-10  .100000000000D+01  .148500000000D+04  .000000000000D+00
     .240000000000D+01  .000000000000D+00 -.102445483208D-07  .380000000000D+02
     .367206000000D+06  .400000000000D+01
30 08  6 26  8  0  0.0  .829794444144D-04  .181898940355D-11  .000000000000D+00
     .450000000000D+02 -.458750000000D+02  .500127975195D-08  .743807093728D+00
    -.255927443504D-05  .107224314706D-01  .606663525105D-05  .515371730423D+04
     .374400000000D+06 -.102445483208D-06 -.279913524774D+01 -.447034835815D-07
     .949208699129D+00  .256718750000D+03  .137617331455D+01 -.856214236188D-08
    -.403588239642D-10  .100000000000D+01  .148500000000D+04  .000000000000D+00
     .340000000000D+01  .000000000000D+00 -.838190317154D-08  .450000000000D+02
     .367206000000D+06  .400000000000D+01
31 08  6 26  8  0  0.0 -.246986746788D-04 -.125055521494D-11  .000000000000D+00
     .510000000000D+02  .124687500000D+02  .425839166482D-08 -.312378567679D+01
     .769272446632D-06  .666155864019D-02  .672228634357D-05  .515376795959D+04
     .374400000000D+06  .204890966415D-07  .247358276439D+01  .931322574615D-08
     .968323237955D+00  .255500000000D+03 -.121967259278D+01 -.791782980939D-08
     .262510934634D-09  .100000000000D+01  .148500000000D+04  .000000000000D+00
     .240000000000D+01  .000000000000D+00 -.130385160446D-07  .510000000000D+02
     .367206000000D+06  .400000000000D+01
32 08  6 26  8  0  0.0  .301599968225D-03  .375166564481D-11  .000000000000D+00
     .570000000000D+02 -.114375000000D+02  .444589947527D-08 -.200337266232D+01
    -.527128577232D-06  .136938998476D-01  .593252480030D-05  .515462935066D+04
     .374400000000D+06 -.204890966415D-07  .466936922346D+00  .331550836563D-06
     .969025854102D+00  .266687500000D+03 -.129801774271D+01 -.799890461506D-08
    -.403231081907D-09  .100000000000D+01  .148500000000D+04  .000000000000D+00
     .240000000000D+01  .000000000000D+00 -.279396772385D-08  .570000000000D+02
     .367206000000D+06  .400000000000D+01
25 08  6 26  8  0  0.0 -.177114736289D-03 -.557065504836D-11  .000000000000D+00
     .700000000000D+01  .164687500000D+02  .437375361297D-08  .152759565079D+01
     .735744833946D-06  .116772130132D-01  .678189098835D-05  .515369720650D+04
     .374400000000D+06  .279396772385D-06  .238214055070D+01 -.193715095520D-06
     .965251206541D+00  .248968750000D+03 -.124621087032D+01 -.807497921244D-08
     .372158359032D-09  .100000000000D+01  .148500000000D+04  .000000000000D+00
     .240000000000D+01  .000000000000D+00 -.745058059692D-08  .700000000000D+01
     .368016000000D+06  .400000000000D+01
20 08  6 26  7 59 44.0  .111287459731D-03 -.795807864051D-12  .000000000000D+00
     .170000000000D+02 -.956250000000D+01  .510306970619D-08  .124768589113D+01
    -.627711415291D-06  .364378606901D-02  .539794564247D-05  .515354079056D+04
     .374384000000D+06 -.150874257088D-06  .364497107888D+00 -.745058059692D-08
     .947144584625D+00  .268343750000D+03  .135155854460D+01 -.849535386559D-08
    -.335371112410D-09  .100000000000D+01  .148500000000D+04  .000000000000D+00
     .240000000000D+01  .000000000000D+00 -.651925802231D-08  .170000000000D+02
     .369486000000D+06  .400000000000D+01
20 08  6 26  9 59 44.0  .111281406134D-03 -.795807864051D-12  .000000000000D+00
     .180000000000D+02 -.603125000000D+01  .505878214715D-08  .229762373853D+01
    -.467523932457D-06  .364328199066D-02  .473298132420D-05  .515354319572D+04
     .381584000000D+06 -.577419996262D-07  .364436275365D+00 -.912696123123D-07
     .947142675517D+00  .277437500000D+03  .135188650012D+01 -.839999275056D-08
    -.315727437029D-09  .100000000000D+01  .148500000000D+04  .000000000000D+00
     .240000000000D+01  .000000000000D+00 -.651925802231D-08  .180000000000D+02
     .374406000000D+06  .400000000000D+01
 2 08  6 26 10  0  0.0  .205156859010D-03 -.136424205266D-11  .000000000000D+00
     .600000000000D+02  .718750000000D+02  .532950770967D-08 -.191366566843D-01
     .374950468540D-05  .878550333437D-02  .706873834133D-05  .515374132347D+04
     .381600000000D+06  .651925802231D-07 -.674039638148D+00 -.102445483208D-06
     .943201000748D+00  .234312500000D+03  .259172757789D+01 -.859035782288D-08
     .279654505876D-09  .100000000000D+01  .148500000000D+04  .000000000000D+00
     .240000000000D+01  .000000000000D+00 -.172294676304D-07  .600000000000D+02
     .374406000000D+06  .400000000000D+01
 3 08  6 26 10  0  0.0  .247278250754D-03  .511590769747D-11  .000000000000D+00
     .240000000000D+02 -.120000000000D+02  .532522181686D-08 -.406400945053D+00
    -.467523932457D-06  .107193030417D-01  .971369445324D-05  .515368992615D+04
     .381600000000D+06  .316649675369D-07 -.181838785323D+01  .165775418282D-06
     .925626853217D+00  .176812500000D+03  .819164110593D+00 -.854999899892D-08
     .121433629627D-10  .100000000000D+01  .148500000000D+04  .000000000000D+00
     .240000000000D+01  .000000000000D+00 -.419095158577D-08  .240000000000D+02
     .374406000000D+06  .400000000000D+01
 4 08  6 26 10  0  0.0 -.100255943835D-03 -.932232069317D-11  .000000000000D+00
     .880000000000D+02  .747187500000D+02  .522986070183D-08  .267552851841D+01
     .389479100704D-05  .805180869065D-02  .704266130924D-05  .515379639435D+04
     .381600000000D+06 -.104308128357D-06 -.655218036964D+00 -.100582838058D-06
     .942510994955D+00  .235156250000D+03  .379616657358D+00 -.831820362943D-08
     .269654089318D-09  .100000000000D+01  .148500000000D+04  .000000000000D+00
     .240000000000D+01  .000000000000D+00 -.605359673500D-08  .880000000000D+02
     .374406000000D+06  .400000000000D+01
 5 08  6 26 10  0  0.0 -.380275305361D-03  .122781784739D-10  .000000000000D+00
     .180000000000D+03 -.458437500000D+02  .496056377025D-08  .232055632970D+01
    -.244379043579D-05  .890560587868D-02  .587850809097D-05  .515356794548D+04
     .381600000000D+06  .135973095894D-06 -.285095448179D+01 -.912696123123D-07
     .943139708869D+00  .255406250000D+03  .123143125181D+01 -.828820237975D-08
     .403588239642D-10  .100000000000D+01  .148500000000D+04  .000000000000D+00
     .485000000000D+01  .000000000000D+00 -.419095158577D-08  .180000000000D+03
     .374406000000D+06  .400000000000D+01
 6 08  6 26 10  0  0.0  .153571367264D-03  .534328137292D-11  .000000000000D+00
     .460000000000D+02 -.155625000000D+02  .506378235543D-08  .225275244080D+01
    -.819563865662D-06  .592398375738D-02  .100862234831D-04  .515373206711D+04
     .381600000000D+06  .949949026108D-07 -.175349803717D+01 -.540167093277D-07
     .933162967446D+00  .171375000000D+03 -.164922223273D+01 -.814819654795D-08
     .750031241812D-11  .100000000000D+01  .148500000000D+04  .000000000000D+00
     .240000000000D+01  .000000000000D+00 -.465661287308D-08  .460000000000D+02
     .374406000000D+06  .400000000000D+01
